CTC2_L_00554014-15
1 10248U 25772RL  26075.70048611  .00000000  00000+0  00000-0 0  9994
2 10248  98.7000 156.0000 0000000   0.0000 314.6667 14.27529684    15
CTC2_L_00554014-16
1 10249U 25220GH  26075.70048611  .00000000  00000+0  00000-0 0  9993
2 10249  98.7000 156.0000 0000000   0.0000 334.6667 14.27529684    18
CTC2_L_00554014-17
1 10250U 23913FT  26075.70048611  .00000000  00000+0  00000-0 0  9992
2 10250  98.7000 156.0000 0000000   0.0000 354.6667 14.27529684    12
CTC2_L_00554014-18
1 10251U 26836CZ  26075.70048611  .00000000  00000+0  00000-0 0  9990
2 10251  98.7000 156.0000 0000000   0.0000  14.6667 14.27529684    16
CTC2_L_00554015-01
1 10252U 22955PG  26075.70048611  .00000000  00000+0  00000-0 0  9999
2 10252  98.7000 168.0000 0000000   0.0000  37.3333 14.27529684    12
CTC2_L_00554015-02
1 10253U 24272E   26075.70048611  .00000000  00000+0  00000-0 0  9994
2 10253  98.7000 168.0000 0000000   0.0000  57.3333 14.27529684    15
CTC2_L_00554015-03
1 10254U 23437YQ  26075.70048611  .00000000  00000+0  00000-0 0  9997
2 10254  98.7000 168.0000 0000000   0.0000  77.3333 14.27529684    18
CTC2_L_00554015-04
1 10255U 26030OK  26075.70048611  .00000000  00000+0  00000-0 0  9990
2 10255  98.7000 168.0000 0000000   0.0000  97.3333 14.27529684    11
CTC2_L_00554015-05
1 10256U 25328VX  26075.70048611  .00000000  00000+0  00000-0 0  9990
2 10256  98.7000 168.0000 0000000   0.0000 117.3333 14.27529684    15
CTC2_L_00554015-06
1 10257U 25956MJ  26075.70048611  .00000000  00000+0  00000-0 0  9998
2 10257  98.7000 168.0000 0000000   0.0000 137.3333 14.27529684    18
CTC2_L_00554015-07
1 10258U 25417LN  26075.70048611  .00000000  00000+0  00000-0 0  9991
2 10258  98.7000 168.0000 0000000   0.0000 157.3333 14.27529684    11
CTC2_L_00554015-08
1 10259U 22422TF  26075.70048611  .00000000  00000+0  00000-0 0  9995
2 10259  98.7000 168.0000 0000000   0.0000 177.3333 14.27529684    14
CTC2_L_00554015-09
1 10260U 24061OE  26075.70048611  .00000000  00000+0  00000-0 0  9998
2 10260  98.7000 168.0000 0000000   0.0000 197.3333 14.27529684    18
CTC2_L_00554015-10
1 10261U 23533YK  26075.70048611  .00000000  00000+0  00000-0 0  9992
2 10261  98.7000 168.0000 0000000   0.0000 217.3333 14.27529684    12
CTC2_L_00554015-11
1 10262U 24008EV  26075.70048611  .00000000  00000+0  00000-0 0  9991
2 10262  98.7000 168.0000 0000000   0.0000 237.3333 14.27529684    15
CTC2_L_00554015-12
1 10263U 24693YR  26075.70048611  .00000000  00000+0  00000-0 0  9992
2 10263  98.7000 168.0000 0000000   0.0000 257.3333 14.27529684    18
CTC2_L_00554015-13
1 10264U 26689PS  26075.70048611  .00000000  00000+0  00000-0 0  9990
2 10264  98.7000 168.0000 0000000   0.0000 277.3333 14.27529684    11
CTC2_L_00554015-14
1 10265U 23928GT  26075.70048611  .00000000  00000+0  00000-0 0  9994
2 10265  98.7000 168.0000 0000000   0.0000 297.3333 14.27529684    14
CTC2_L_00554015-15
1 10266U 22703CV  26075.70048611  .00000000  00000+0  00000-0 0  9995
2 10266  98.7000 168.0000 0000000   0.0000 317.3333 14.27529684    18
CTC2_L_00554015-16
1 10267U 23516HQ  26075.70048611  .00000000  00000+0  00000-0 0  9999
2 10267  98.7000 168.0000 0000000   0.0000 337.3333 14.27529684    11
CTC2_L_00554015-17
1 10268U 23270HF  26075.70048611  .00000000  00000+0  00000-0 0  9997
2 10268  98.7000 168.0000 0000000   0.0000 357.3333 14.27529684    14
CTC2_L_00554015-18
1 10269U 25886EW  26075.70048611  .00000000  00000+0  00000-0 0  9993
2 10269  98.7000 168.0000 0000000   0.0000  17.3333 14.27529684    18
CTC2_L_00554016-01
1 10270U 22221XR  26075.70048611  .00000000  00000+0  00000-0 0  9995
2 10270  98.7000 180.0000 0000000   0.0000  40.0000 14.27529684    18
CTC2_L_00554016-02
1 10271U 23963JL  26075.70048611  .00000000  00000+0  00000-0 0  9990
2 10271  98.7000 180.0000 0000000   0.0000  60.0000 14.27529684    11
CTC2_L_00554016-03
1 10272U 26332UG  26075.70048611  .00000000  00000+0  00000-0 0  9994
2 10272  98.7000 180.0000 0000000   0.0000  80.0000 14.27529684    14
CTC2_L_00554016-04
1 10273U 25632IP  26075.70048611  .00000000  00000+0  00000-0 0  9997
2 10273  98.7000 180.0000 0000000   0.0000 100.0000 14.27529684    18
CTC2_L_00554016-05
1 10274U 22098XD  26075.70048611  .00000000  00000+0  00000-0 0  9991
2 10274  98.7000 180.0000 0000000   0.0000 120.0000 14.27529684    11
CTC2_L_00554016-06
1 10275U 26991DG  26075.70048611  .00000000  00000+0  00000-0 0  9998
2 10275  98.7000 180.0000 0000000   0.0000 140.0000 14.27529684    14
CTC2_L_00554016-07
1 10276U 22165FC  26075.70048611  .00000000  00000+0  00000-0 0  9998
2 10276  98.7000 180.0000 0000000   0.0000 160.0000 14.27529684    17
CTC2_L_00554016-08
1 10277U 25685FI  26075.70048611  .00000000  00000+0  00000-0 0  9999
2 10277  98.7000 180.0000 0000000   0.0000 180.0000 14.27529684    10
CTC2_L_00554016-09
1 10278U 22959IF  26075.70048611  .00000000  00000+0  00000-0 0  9991
2 10278  98.7000 180.0000 0000000   0.0000 200.0000 14.27529684    14
CTC2_L_00554016-10
1 10279U 23836LG  26075.70048611  .00000000  00000+0  00000-0 0  9997
2 10279  98.7000 180.0000 0000000   0.0000 220.0000 14.27529684    17
CTC2_L_00554016-11
1 10280U 25402MC  26075.70048611  .00000000  00000+0  00000-0 0  9990
2 10280  98.7000 180.0000 0000000   0.0000 240.0000 14.27529684    11
CTC2_L_00554016-12
1 10281U 23022GO  26075.70048611  .00000000  00000+0  00000-0 0  9997
2 10281  98.7000 180.0000 0000000   0.0000 260.0000 14.27529684    14
CTC2_L_00554016-13
1 10282U 26169KH  26075.70048611  .00000000  00000+0  00000-0 0  9993
2 10282  98.7000 180.0000 0000000   0.0000 280.0000 14.27529684    17
CTC2_L_00554016-14
1 10283U 24266KJ  26075.70048611  .00000000  00000+0  00000-0 0  9990
2 10283  98.7000 180.0000 0000000   0.0000 300.0000 14.27529684    11
CTC2_L_00554016-15
1 10284U 26615KV  26075.70048611  .00000000  00000+0  00000-0 0  9991
2 10284  98.7000 180.0000 0000000   0.0000 320.0000 14.27529684    14
CTC2_L_00554016-16
1 10285U 24979GK  26075.70048611  .00000000  00000+0  00000-0 0  9993
2 10285  98.7000 180.0000 0000000   0.0000 340.0000 14.27529684    17
CTC2_L_00554016-17
1 10286U 25564PW  26075.70048611  .00000000  00000+0  00000-0 0  9995
2 10286  98.7000 180.0000 0000000   0.0000   0.0000 14.27529684    11
CTC2_L_00554016-18
1 10287U 25109BR  26075.70048611  .00000000  00000+0  00000-0 0  9991
2 10287  98.7000 180.0000 0000000   0.0000  20.0000 14.27529684    14
CTC2_L_00554017-01
1 10288U 22819IZ  26075.70048611  .00000000  00000+0  00000-0 0  9997
2 10288  98.7000 192.0000 0000000   0.0000  42.6667 14.27529684    17
CTC2_L_00554017-02
1 10289U 24969TG  26075.70048611  .00000000  00000+0  00000-0 0  9996
2 10289  98.7000 192.0000 0000000   0.0000  62.6667 14.27529684    10
CTC2_L_00554017-03
1 10290U 26132WN  26075.70048611  .00000000  00000+0  00000-0 0  9992
2 10290  98.7000 192.0000 0000000   0.0000  82.6667 14.27529684    14
CTC2_L_00554017-04
1 10291U 23743TQ  26075.70048611  .00000000  00000+0  00000-0 0  9998
2 10291  98.7000 192.0000 0000000   0.0000 102.6667 14.27529684    18
CTC2_L_00554017-05
1 10292U 26990IM  26075.70048611  .00000000  00000+0  00000-0 0  9996
2 10292  98.7000 192.0000 0000000   0.0000 122.6667 14.27529684    11
CTC2_L_00554017-06
1 10293U 23109MK  26075.70048611  .00000000  00000+0  00000-0 0  9996
2 10293  98.7000 192.0000 0000000   0.0000 142.6667 14.27529684    14
CTC2_L_00554017-07
1 10294U 23429YQ  26075.70048611  .00000000  00000+0  00000-0 0  9992
2 10294  98.7000 192.0000 0000000   0.0000 162.6667 14.27529684    17
CTC2_L_00554017-08
1 10295U 25161SB  26075.70048611  .00000000  00000+0  00000-0 0  9998
2 10295  98.7000 192.0000 0000000   0.0000 182.6667 14.27529684    10
CTC2_L_00554017-09
1 10296U 22754ZE  26075.70048611  .00000000  00000+0  00000-0 0  9994
2 10296  98.7000 192.0000 0000000   0.0000 202.6667 14.27529684    14
CTC2_L_00554017-10
1 10297U 24069XA  26075.70048611  .00000000  00000+0  00000-0 0  9996
2 10297  98.7000 192.0000 0000000   0.0000 222.6667 14.27529684    17
CTC2_L_00554017-11
1 10298U 24315JT  26075.70048611  .00000000  00000+0  00000-0 0  9991
2 10298  98.7000 192.0000 0000000   0.0000 242.6667 14.27529684    10
CTC2_L_00554017-12
1 10299U 22771BH  26075.70048611  .00000000  00000+0  00000-0 0  9996
2 10299  98.7000 192.0000 0000000   0.0000 262.6667 14.27529684    13
CTC2_L_00554017-13
1 10300U 23819WL  26075.70048611  .00000000  00000+0  00000-0 0  9993
2 10300  98.7000 192.0000 0000000   0.0000 282.6667 14.27529684    18
CTC2_L_00554017-14
1 10301U 25827RD  26075.70048611  .00000000  00000+0  00000-0 0  9995
2 10301  98.7000 192.0000 0000000   0.0000 302.6667 14.27529684    12
CTC2_L_00554017-15
1 10302U 25225BX  26075.70048611  .00000000  00000+0  00000-0 0  9998
2 10302  98.7000 192.0000 0000000   0.0000 322.6667 14.27529684    15
CTC2_L_00554017-16
1 10303U 26180WH  26075.70048611  .00000000  00000+0  00000-0 0  9990
2 10303  98.7000 192.0000 0000000   0.0000 342.6667 14.27529684    18
CTC2_L_00554017-17
1 10304U 22396BW  26075.70048611  .00000000  00000+0  00000-0 0  9996
2 10304  98.7000 192.0000 0000000   0.0000   2.6667 14.27529684    12
CTC2_L_00554017-18
1 10305U 22930XF  26075.70048611  .00000000  00000+0  00000-0 0  9991
2 10305  98.7000 192.0000 0000000   0.0000  22.6667 14.27529684    15
CTC2_L_00554018-01
1 10306U 25560BS  26075.70048611  .00000000  00000+0  00000-0 0  9994
2 10306  98.7000 204.0000 0000000   0.0000  45.3333 14.27529684    12
CTC2_L_00554018-02
1 10307U 22010TB  26075.70048611  .00000000  00000+0  00000-0 0  9992
2 10307  98.7000 204.0000 0000000   0.0000  65.3333 14.27529684    15
CTC2_L_00554018-03
1 10308U 26022ZS  26075.70048611  .00000000  00000+0  00000-0 0  9990
2 10308  98.7000 204.0000 0000000   0.0000  85.3333 14.27529684    18
CTC2_L_00554018-04
1 10309U 22561GD  26075.70048611  .00000000  00000+0  00000-0 0  9995
2 10309  98.7000 204.0000 0000000   0.0000 105.3333 14.27529684    12
